[{"OBJECT_NAME":"STARLINK-5071","OBJECT_ID":"2023-014M","EPOCH":"2026-03-09T22:55:45.567264","MEAN_MOTION":14.98335489,"ECCENTRICITY":0.00027766,"INCLINATION":69.9996,"RA_OF_ASC_NODE":63.8513,"ARG_OF_PERICENTER":270.2749,"MEAN_ANOMALY":89.8092,"EPHEMERIS_TYPE":0,"CLASSIFICATION_TYPE":"U","NORAD_CAT_ID":55402,"ELEMENT_SET_NO":999,"REV_AT_EPOCH":17209,"BSTAR":-4.8861754e-5,"MEAN_MOTION_DOT":-6.76e-6,"MEAN_MOTION_DDOT":0},{"OBJECT_NAME":"SITRO-AIS 17","OBJECT_ID":"2024-199BG","EPOCH":"2026-03-09T22:41:43.974240","MEAN_MOTION":14.97395626,"ECCENTRICITY":0.0007298,"INCLINATION":97.3319,"RA_OF_ASC_NODE":274.6922,"ARG_OF_PERICENTER":55.1829,"MEAN_ANOMALY":305.008,"EPHEMERIS_TYPE":0,"CLASSIFICATION_TYPE":"U","NORAD_CAT_ID":61789,"ELEMENT_SET_NO":999,"REV_AT_EPOCH":11718,"BSTAR":0.00028776531,"MEAN_MOTION_DOT":3.293e-5,"MEAN_MOTION_DDOT":0}]
